{"type":"FeatureCollection","features":[{"type":"Feature","geometry":{"type":"Point","coordinates":[-73.98569941520691,40.74842740261897]},"properties":{"name":"WBAI-FM","layer":"poi_label","class":"landmark","maki":"marker","distance":3}},{"type":"Feature","geometry":{"type":"Point","coordinates":[-73.98569405078888,40.74842740261897]},"properties":{"name":"WSKQ-FM","layer":"poi_label","class":"landmark","maki":"marker","distance":3}},{"type":"Feature","geometry":{"type":"Point","coordinates":[-73.98569002747536,40.748431466610214]},"properties":{"name":"WNEW-FM","layer":"poi_label","class":"landmark","maki":"marker","distance":4}},{"type":"Feature","geometry":{"type":"Point","coordinates":[-73.98570075631142,40.74843248260797]},"properties":{"name":"WBLS-FM","layer":"poi_label","class":"landmark","maki":"marker","distance":4}},{"type":"Feature","geometry":{"type":"Point","coordinates":[-73.9856967329979,40.7484345146035]},"properties":{"name":"WQXR-FM","layer":"poi_label","class":"landmark","maki":"marker","distance":4}},{"type":"Feature","geometry":{"type":"Point","coordinates":[-73.98569539189339,40.7484345146035]},"properties":{"name":"WLTW-FM","layer":"poi_label","class":"landmark","maki":"marker","distance":4}},{"type":"Feature","geometry":{"type":"Point","coordinates":[-73.98569405078888,40.7484345146035]},"properties":{"name":"WWPR-FM","layer":"poi_label","class":"landmark","maki":"marker","distance":4}},{"type":"Feature","geometry":{"type":"Point","coordinates":[-73.98569539189339,40.7484355306012]},"properties":{"name":"WAXQ-FM","layer":"poi_label","class":"landmark","maki":"marker","distance":4}},{"type":"Feature","geometry":{"type":"Point","coordinates":[-73.98569539189339,40.7484355306012]},"properties":{"name":"WEPN-FM","layer":"poi_label","class":"landmark","maki":"marker","distance":4}},{"type":"Feature","geometry":{"type":"Point","coordinates":[-73.98569270968437,40.7484355306012]},"properties":{"name":"WCBS-FM","layer":"poi_label","class":"landmark","maki":"marker","distance":4}},{"type":"Feature","geometry":{"type":"Point","coordinates":[-73.98569539189339,40.748436546598924]},"properties":{"name":"WPLJ-FM","layer":"poi_label","class":"landmark","maki":"marker","distance":4}},{"type":"Feature","geometry":{"type":"Point","coordinates":[-73.98569405078888,40.748436546598924]},"properties":{"name":"WNYL-FM","layer":"poi_label","class":"landmark","maki":"marker","distance":4}},{"type":"Feature","geometry":{"type":"Point","coordinates":[-73.98568466305733,40.7484355306012]},"properties":{"name":"WQHT-FM","layer":"poi_label","class":"landmark","maki":"marker","distance":4}},{"type":"Feature","geometry":{"type":"Point","coordinates":[-73.9856967329979,40.74843756259662]},"properties":{"name":"WNYE-TV","layer":"poi_label","class":"landmark","maki":"marker","distance":4}},{"type":"Feature","geometry":{"type":"Point","coordinates":[-73.98569270968437,40.74843959459196]},"properties":{"name":"WFAN-FM","layer":"poi_label","class":"landmark","maki":"marker","distance":4}},{"type":"Feature","geometry":{"type":"Point","coordinates":[-73.98565918207169,40.74844162658724]},"properties":{"name":"Empire State Building","layer":"poi_label","class":"arts_and_entertainment","maki":"attraction","distance":6}},{"type":"Feature","geometry":{"type":"Point","coordinates":[-73.98565515875816,40.74832681875648]},"properties":{"name":"NY Skyride","layer":"poi_label","class":"arts_and_entertainment","maki":"attraction","distance":9}},{"type":"Feature","geometry":{"type":"Point","coordinates":[-73.98559480905533,40.7483522187361]},"properties":{"name":"Morgan & Morgan","layer":"poi_label","class":"commercial_services","maki":"marker","distance":10}},{"type":"Feature","geometry":{"type":"Point","coordinates":[-73.9855532348156,40.748397938675]},"properties":{"name":"Sushi teria","layer":"poi_label","class":"food_and_drink","maki":"restaurant","distance":12}},{"type":"Feature","geometry":{"type":"Point","coordinates":[-73.98555189371109,40.74834917073906]},"properties":{"name":"Peter Lampack Agency","layer":"poi_label","class":"general","maki":"marker","distance":14}},{"type":"Feature","geometry":{"type":"Point","coordinates":[-73.9855183660984,40.748322754758846]},"properties":{"name":"Acronym","layer":"poi_label","class":"general","maki":"marker","distance":18}},{"type":"Feature","geometry":{"type":"Point","coordinates":[-73.98568734526634,40.74818457869128]},"properties":{"name":"Starbucks","layer":"poi_label","class":"food_and_drink","maki":"cafe","distance":24}},{"type":"Feature","geometry":{"type":"Point","coordinates":[-73.98601859807968,40.7483044667664]},"properties":{"name":"STATE Grill and Bar","layer":"poi_label","class":"food_and_drink","maki":"restaurant","distance":29}},{"type":"Feature","geometry":{"type":"Point","coordinates":[-73.98577183485031,40.7487474411692]},"properties":{"name":"AT&T","layer":"poi_label","class":"store_like","maki":"marker","distance":39}},{"type":"Feature","geometry":{"type":"Point","coordinates":[-73.98588180541992,40.7480027141647]},"properties":{"name":"Legends","layer":"poi_label","class":"food_and_drink","maki":"beer","distance":47}},{"type":"Feature","geometry":{"type":"Point","coordinates":[-73.98578524589539,40.747961057974095]},"properties":{"name":"Naya","layer":"poi_label","class":"food_and_drink","maki":"fast-food","distance":49}},{"type":"Feature","geometry":{"type":"Point","coordinates":[-73.98570477962494,40.74792549779073]},"properties":{"name":"Dunkin’","layer":"poi_label","class":"food_and_drink","maki":"cafe","distance":53}},{"type":"Feature","geometry":{"type":"Point","coordinates":[-73.986257314682,40.74816425865711]},"properties":{"name":"Sir John’s NY","layer":"poi_label","class":"food_and_drink","maki":"beer","distance":54}},{"type":"Feature","geometry":{"type":"Point","coordinates":[-73.9859864115715,40.74884599241261]},"properties":{"name":"Human Rights Watch","layer":"poi_label","class":"general","maki":"marker","distance":55}},{"type":"Feature","geometry":{"type":"Point","coordinates":[-73.98563772439957,40.74789501761839]},"properties":{"name":"Solle Spa","layer":"poi_label","class":"store_like","maki":"marker","distance":56}},{"type":"Feature","geometry":{"type":"Point","coordinates":[-73.98503288626671,40.74842841861681]},"properties":{"name":"Chipotle","layer":"poi_label","class":"food_and_drink","maki":"fast-food","distance":56}},{"type":"Feature","geometry":{"type":"Point","coordinates":[-73.98632436990738,40.74858183411172]},"properties":{"name":"Kawande Martin Cafe","layer":"poi_label","class":"food_and_drink","maki":"cafe","distance":56}},{"type":"Feature","geometry":{"type":"Point","coordinates":[-73.98540169000626,40.74888968003049]},"properties":{"name":"West 34th Street & 5th Avenue","layer":"transit_stop_label","class":"","maki":"bus","distance":60}},{"type":"Feature","geometry":{"type":"Point","coordinates":[-73.98518040776253,40.7480169382238]},"properties":{"name":"Walgreens","layer":"poi_label","class":"medical","maki":"pharmacy","distance":61}},{"type":"Feature","geometry":{"type":"Point","coordinates":[-73.98495644330978,40.748332914752496]},"properties":{"name":"Juicy Couture","layer":"poi_label","class":"store_like","maki":"clothing-store","distance":63}},{"type":"Feature","geometry":{"type":"Point","coordinates":[-73.98641422390938,40.748219122735065]},"properties":{"name":"Turntable Chicken Jazz","layer":"poi_label","class":"food_and_drink","maki":"restaurant","distance":64}},{"type":"Feature","geometry":{"type":"Point","coordinates":[-73.98647725582123,40.748250618759386]},"properties":{"name":"Nan Xiang Xiao Long Bao","layer":"poi_label","class":"food_and_drink","maki":"restaurant","distance":68}},{"type":"Feature","geometry":{"type":"Point","coordinates":[-73.98539900779724,40.748966895284894]},"properties":{"name":"LensCrafters","layer":"poi_label","class":"store_like","maki":"optician","distance":68}},{"type":"Feature","geometry":{"type":"Point","coordinates":[-73.98553311824799,40.74902277468942]},"properties":{"name":"Lindt","layer":"poi_label","class":"store_like","maki":"marker","distance":71}},{"type":"Feature","geometry":{"type":"Point","coordinates":[-73.98653894662857,40.748280082768645]},"properties":{"name":"Market Crates","layer":"poi_label","class":"food_and_drink","maki":"fast-food","distance":72}},{"type":"Feature","geometry":{"type":"Point","coordinates":[-73.98559883236885,40.7490674781792]},"properties":{"name":"Foot Locker","layer":"poi_label","class":"store_like","maki":"shoe","distance":75}},{"type":"Feature","geometry":{"type":"Point","coordinates":[-73.98620501160622,40.748962831326395]},"properties":{"name":"Build-A-Bear Workshop","layer":"poi_label","class":"store_like","maki":"shop","distance":76}},{"type":"Feature","geometry":{"type":"Point","coordinates":[-73.98661002516747,40.748307514765486]},"properties":{"name":"Seoul Salon","layer":"poi_label","class":"food_and_drink","maki":"restaurant","distance":78}},{"type":"Feature","geometry":{"type":"Point","coordinates":[-73.98531720042229,40.747753792637724]},"properties":{"name":"Woori America Bank","layer":"poi_label","class":"commercial_services","maki":"bank","distance":79}},{"type":"Feature","geometry":{"type":"Point","coordinates":[-73.98571819067001,40.7491233574992]},"properties":{"name":"Zumiez","layer":"poi_label","class":"store_like","maki":"clothing-store","distance":80}},{"type":"Feature","geometry":{"type":"Point","coordinates":[-73.98627072572708,40.74899026304158]},"properties":{"name":"Empire State Gifts & Luggage","layer":"poi_label","class":"store_like","maki":"shop","distance":81}},{"type":"Feature","geometry":{"type":"Point","coordinates":[-73.9847794175148,40.74872000935383]},"properties":{"name":"Bank of America","layer":"poi_label","class":"commercial_services","maki":"bank","distance":85}},{"type":"Feature","geometry":{"type":"Point","coordinates":[-73.98472979664803,40.748683433582386]},"properties":{"name":"Glow Dental of Midtown Manhattan: Dr. Alina Huang","layer":"poi_label","class":"medical","maki":"dentist","distance":88}}]}