{"type":"FeatureCollection","features":[{"type":"Feature","geometry":{"type":"Point","coordinates":[2.321830093860626,48.84216073654795]},"properties":{"name":"Wedig Paris","layer":"poi_label","class":"general","maki":"marker","distance":7}},{"type":"Feature","geometry":{"type":"Point","coordinates":[2.3219789564609528,48.84211307457821]},"properties":{"name":"Montparnasse Tower","layer":"poi_label","class":"arts_and_entertainment","maki":"attraction","distance":11}},{"type":"Feature","geometry":{"type":"Point","coordinates":[2.322078198194504,48.84218368488757]},"properties":{"name":"Le ciel de Paris","layer":"poi_label","class":"food_and_drink","maki":"restaurant","distance":13}},{"type":"Feature","geometry":{"type":"Point","coordinates":[2.322135865688324,48.84238139322417]},"properties":{"name":"Tabac de la Tour","layer":"poi_label","class":"store_like","maki":"marker","distance":27}},{"type":"Feature","geometry":{"type":"Point","coordinates":[2.3219414055347443,48.84244317691932]},"properties":{"name":"Le Mail","layer":"poi_label","class":"food_and_drink","maki":"cafe","distance":27}},{"type":"Feature","geometry":{"type":"Point","coordinates":[2.3221760988235474,48.84236550597598]},"properties":{"name":"Visite de la Tour Montparnasse","layer":"poi_label","class":"store_like","maki":"marker","distance":27}},{"type":"Feature","geometry":{"type":"Point","coordinates":[2.3222149908542633,48.84205835151997]},"properties":{"name":"Centre Régional d'information et de prévention du Sida","layer":"poi_label","class":"public_facilities","maki":"marker","distance":28}},{"type":"Feature","geometry":{"type":"Point","coordinates":[2.3222337663173676,48.842357562349974]},"properties":{"name":"Restaurant Inter-entreprises","layer":"poi_label","class":"food_and_drink","maki":"restaurant","distance":30}},{"type":"Feature","geometry":{"type":"Point","coordinates":[2.321874350309372,48.84189153408644]},"properties":{"name":"Paris Tour Montparnasse","layer":"poi_label","class":"public_facilities","maki":"post","distance":34}},{"type":"Feature","geometry":{"type":"Point","coordinates":[2.322051376104355,48.842557917865264]},"properties":{"name":"Montparnasse","layer":"poi_label","class":"visitor_amenities","maki":"information","distance":41}},{"type":"Feature","geometry":{"type":"Point","coordinates":[2.321351319551468,48.842108661430586]},"properties":{"name":"MixClub","layer":"poi_label","class":"food_and_drink","maki":"bar","distance":42}},{"type":"Feature","geometry":{"type":"Point","coordinates":[2.3218636214733124,48.84259057485565]},"properties":{"name":"RER","layer":"poi_label","class":"visitor_amenities","maki":"information","distance":44}},{"type":"Feature","geometry":{"type":"Point","coordinates":[2.3220084607601166,48.8425994010656]},"properties":{"name":"Brioche Dorée","layer":"poi_label","class":"food_and_drink_stores","maki":"bakery","distance":45}},{"type":"Feature","geometry":{"type":"Point","coordinates":[2.321505546569824,48.84182974971077]},"properties":{"name":"Asia Gourmet","layer":"poi_label","class":"food_and_drink","maki":"restaurant","distance":50}},{"type":"Feature","geometry":{"type":"Point","coordinates":[2.321290969848633,48.842450237908224]},"properties":{"name":"Sortie n°1","layer":"poi_label","class":"visitor_amenities","maki":"information","distance":53}},{"type":"Feature","geometry":{"type":"Point","coordinates":[2.3212815821170807,48.84245729889611]},"properties":{"name":"Sortie n°2","layer":"poi_label","class":"visitor_amenities","maki":"information","distance":54}},{"type":"Feature","geometry":{"type":"Point","coordinates":[2.322031259536743,48.84170088491058]},"properties":{"name":"Brasil Tropical","layer":"poi_label","class":"food_and_drink","maki":"restaurant","distance":56}},{"type":"Feature","geometry":{"type":"Point","coordinates":[2.3222726583480835,48.84264882781267]},"properties":{"name":"Still Good","layer":"poi_label","class":"food_and_drink","maki":"restaurant","distance":57}},{"type":"Feature","geometry":{"type":"Point","coordinates":[2.321132719516754,48.84227547814089]},"properties":{"name":"Vélostation Montparnasse","layer":"poi_label","class":"building","maki":"marker","distance":57}},{"type":"Feature","geometry":{"type":"Point","coordinates":[2.321132719516754,48.84208129990651]},"properties":{"name":"Gare Montparnasse","layer":"transit_stop_label","class":"","maki":"bus","distance":58}},{"type":"Feature","geometry":{"type":"Point","coordinates":[2.3225194215774536,48.842527026098]},"properties":{"name":"Chanel","layer":"poi_label","class":"store_like","maki":"clothing-store","distance":58}},{"type":"Feature","geometry":{"type":"Point","coordinates":[2.3215605318546295,48.841696471726635]},"properties":{"name":"Tour Montparnasse","layer":"transit_stop_label","class":"","maki":"entrance","distance":61}},{"type":"Feature","geometry":{"type":"Point","coordinates":[2.322692424058914,48.842388454221776]},"properties":{"name":"Les Galeries  Montparnasse","layer":"poi_label","class":"arts_and_entertainment","maki":"art-gallery","distance":62}},{"type":"Feature","geometry":{"type":"Point","coordinates":[2.322312891483307,48.842687663079715]},"properties":{"name":"Nostrum","layer":"poi_label","class":"food_and_drink","maki":"restaurant","distance":62}},{"type":"Feature","geometry":{"type":"Point","coordinates":[2.3212359845638275,48.84255085689156]},"properties":{"name":"Plan du quartier","layer":"poi_label","class":"visitor_amenities","maki":"information","distance":62}},{"type":"Feature","geometry":{"type":"Point","coordinates":[2.321210503578186,48.84254114805108]},"properties":{"name":"Direction Asnières-Gennevilliers-Saint-Denis","layer":"poi_label","class":"visitor_amenities","maki":"information","distance":63}},{"type":"Feature","geometry":{"type":"Point","coordinates":[2.3211058974266052,48.84248466021472]},"properties":{"name":"Sortie n°3","layer":"poi_label","class":"visitor_amenities","maki":"information","distance":66}},{"type":"Feature","geometry":{"type":"Point","coordinates":[2.321532368659973,48.8415984989426]},"properties":{"name":"METRO","layer":"poi_label","class":"visitor_amenities","maki":"information","distance":72}},{"type":"Feature","geometry":{"type":"Point","coordinates":[2.322118431329727,48.84283417767969]},"properties":{"name":"Promod","layer":"poi_label","class":"store_like","maki":"clothing-store","distance":72}},{"type":"Feature","geometry":{"type":"Point","coordinates":[2.32254758477211,48.84167881898691]},"properties":{"name":"Eric Kayser","layer":"poi_label","class":"food_and_drink_stores","maki":"bakery","distance":75}},{"type":"Feature","geometry":{"type":"Point","coordinates":[2.3210079967975616,48.84253408707502]},"properties":{"name":"Métro","layer":"poi_label","class":"visitor_amenities","maki":"information","distance":75}},{"type":"Feature","geometry":{"type":"Point","coordinates":[2.322617322206497,48.841696471726635]},"properties":{"name":"Les Fauves","layer":"poi_label","class":"food_and_drink","maki":"restaurant","distance":77}},{"type":"Feature","geometry":{"type":"Point","coordinates":[2.3209798336029053,48.842562330973294]},"properties":{"name":"Sortie","layer":"poi_label","class":"visitor_amenities","maki":"information","distance":79}},{"type":"Feature","geometry":{"type":"Point","coordinates":[2.3224537074565887,48.84157819825165]},"properties":{"name":"McDonald's","layer":"poi_label","class":"food_and_drink","maki":"fast-food","distance":80}},{"type":"Feature","geometry":{"type":"Point","coordinates":[2.3224912583827972,48.84282976459559]},"properties":{"name":"NAF NAF","layer":"poi_label","class":"store_like","maki":"clothing-store","distance":82}},{"type":"Feature","geometry":{"type":"Point","coordinates":[2.3207491636276245,48.84233814459225]},"properties":{"name":"Taxi","layer":"poi_label","class":"commercial_services","maki":"marker","distance":86}},{"type":"Feature","geometry":{"type":"Point","coordinates":[2.322733998298645,48.84165587041596]},"properties":{"name":"Tikibou","layer":"poi_label","class":"store_like","maki":"shop","distance":86}},{"type":"Feature","geometry":{"type":"Point","coordinates":[2.322280704975128,48.84294891772984]},"properties":{"name":"La Bagagerie","layer":"poi_label","class":"store_like","maki":"clothing-store","distance":88}},{"type":"Feature","geometry":{"type":"Point","coordinates":[2.3211823403835297,48.8428774258833]},"properties":{"name":"Tim hôtel Montparnasse","layer":"poi_label","class":"lodging","maki":"lodging","distance":92}},{"type":"Feature","geometry":{"type":"Point","coordinates":[2.3210428655147552,48.842804168700155]},"properties":{"name":"Cantal 15","layer":"poi_label","class":"food_and_drink","maki":"restaurant","distance":92}}]}