{"type":"FeatureCollection","features":[{"type":"Feature","geometry":{"type":"Point","coordinates":[103.98913621902466,1.3630826769400386]},"properties":{"name":"Uniqlo","layer":"poi_label","class":"store_like","maki":"clothing-store","distance":147}},{"type":"Feature","geometry":{"type":"Point","coordinates":[103.98918181657791,1.3629673745866029]},"properties":{"name":"Bricco Cafe","layer":"poi_label","class":"food_and_drink","maki":"cafe","distance":159}},{"type":"Feature","geometry":{"type":"Point","coordinates":[103.98932665586472,1.3629553080609185]},"properties":{"name":"Shilla Duty Free","layer":"poi_label","class":"store_like","maki":"shop","distance":160}},{"type":"Feature","geometry":{"type":"Point","coordinates":[103.98905172944069,1.3629472637104243]},"properties":{"name":"DFS Wines & Spirits","layer":"poi_label","class":"food_and_drink_stores","maki":"alcohol-shop","distance":163}},{"type":"Feature","geometry":{"type":"Point","coordinates":[103.9895412325859,1.3628279391750624]},"properties":{"name":"Tip Top","layer":"poi_label","class":"food_and_drink","maki":"cafe","distance":176}},{"type":"Feature","geometry":{"type":"Point","coordinates":[103.98948088288307,1.3628078282977327]},"properties":{"name":"Heavenly Wang","layer":"poi_label","class":"food_and_drink","maki":"fast-food","distance":177}},{"type":"Feature","geometry":{"type":"Point","coordinates":[103.98925557732582,1.3627729694432986]},"properties":{"name":"Paul","layer":"poi_label","class":"food_and_drink_stores","maki":"bakery","distance":180}},{"type":"Feature","geometry":{"type":"Point","coordinates":[103.98905843496323,1.3627877174202325]},"properties":{"name":"Irvin’s Salted Egg","layer":"poi_label","class":"food_and_drink","maki":"cafe","distance":180}},{"type":"Feature","geometry":{"type":"Point","coordinates":[103.98951441049576,1.362740792038764]},"properties":{"name":"Killiney Kopitiam","layer":"poi_label","class":"food_and_drink","maki":"cafe","distance":185}},{"type":"Feature","geometry":{"type":"Point","coordinates":[103.98959219455719,1.362738110588353]},"properties":{"name":"Burger King","layer":"poi_label","class":"food_and_drink","maki":"fast-food","distance":187}},{"type":"Feature","geometry":{"type":"Point","coordinates":[103.98958548903465,1.3627126368094338]},"properties":{"name":"Niigata Bento","layer":"poi_label","class":"food_and_drink","maki":"cafe","distance":189}},{"type":"Feature","geometry":{"type":"Point","coordinates":[103.98940712213516,1.3626683928769694]},"properties":{"name":"Victoria’s Secret","layer":"poi_label","class":"store_like","maki":"clothing-store","distance":192}},{"type":"Feature","geometry":{"type":"Point","coordinates":[103.98951843380928,1.3626241489436808]},"properties":{"name":"Samsonite","layer":"poi_label","class":"store_like","maki":"marker","distance":198}},{"type":"Feature","geometry":{"type":"Point","coordinates":[103.98932531476021,1.3625933122624332]},"properties":{"name":"Swarovski","layer":"poi_label","class":"store_like","maki":"jewelry-store","distance":200}},{"type":"Feature","geometry":{"type":"Point","coordinates":[103.98956671357155,1.3626040380646458]},"properties":{"name":"Lacoste","layer":"poi_label","class":"store_like","maki":"clothing-store","distance":201}},{"type":"Feature","geometry":{"type":"Point","coordinates":[103.98961633443832,1.362585267910731]},"properties":{"name":"Pazzion","layer":"poi_label","class":"store_like","maki":"clothing-store","distance":204}},{"type":"Feature","geometry":{"type":"Point","coordinates":[103.98954927921295,1.3624163365189332]},"properties":{"name":"Prosecur change + travelex exchange","layer":"poi_label","class":"commercial_services","maki":"marker","distance":221}},{"type":"Feature","geometry":{"type":"Point","coordinates":[103.99024933576584,1.3626013566141069]},"properties":{"name":"Kaboom","layer":"poi_label","class":"store_like","maki":"shop","distance":225}},{"type":"Feature","geometry":{"type":"Point","coordinates":[103.98983225226402,1.3624257215965656]},"properties":{"name":"Pure Gold","layer":"poi_label","class":"store_like","maki":"jewelry-store","distance":226}},{"type":"Feature","geometry":{"type":"Point","coordinates":[103.98958817124367,1.3623224857405773]},"properties":{"name":"Cocoa and Co","layer":"poi_label","class":"store_like","maki":"marker","distance":232}},{"type":"Feature","geometry":{"type":"Point","coordinates":[103.98995563387871,1.362381477658829]},"properties":{"name":"Tumi","layer":"poi_label","class":"store_like","maki":"marker","distance":235}},{"type":"Feature","geometry":{"type":"Point","coordinates":[103.99035394191742,1.3625356610746877]},"properties":{"name":"Eu Yan Seng","layer":"poi_label","class":"store_like","maki":"marker","distance":237}},{"type":"Feature","geometry":{"type":"Point","coordinates":[103.9897195994854,1.362279582526412]},"properties":{"name":"Guardian","layer":"poi_label","class":"store_like","maki":"shop","distance":239}},{"type":"Feature","geometry":{"type":"Point","coordinates":[103.9898094534874,1.3622728788991196]},"properties":{"name":"Bengawan Solo","layer":"poi_label","class":"food_and_drink_stores","maki":"bakery","distance":242}},{"type":"Feature","geometry":{"type":"Point","coordinates":[103.99049744009972,1.3625437054265603]},"properties":{"name":"The Coffee Bean & Tea Leaf","layer":"poi_label","class":"food_and_drink","maki":"cafe","distance":245}},{"type":"Feature","geometry":{"type":"Point","coordinates":[103.98988991975784,1.3622407014879059]},"properties":{"name":"TWG Tea","layer":"poi_label","class":"store_like","maki":"marker","distance":248}},{"type":"Feature","geometry":{"type":"Point","coordinates":[103.98884519934654,1.362184391017223]},"properties":{"name":"Station C","layer":"poi_label","class":"building","maki":"marker","distance":250}},{"type":"Feature","geometry":{"type":"Point","coordinates":[103.98996368050575,1.3621857317427413]},"properties":{"name":"MCM","layer":"poi_label","class":"store_like","maki":"marker","distance":256}},{"type":"Feature","geometry":{"type":"Point","coordinates":[103.99002134799957,1.3621642801345217]},"properties":{"name":"iStudio","layer":"poi_label","class":"store_like","maki":"shop","distance":260}},{"type":"Feature","geometry":{"type":"Point","coordinates":[103.9894138276577,1.3620436148348034]},"properties":{"name":"Cheers","layer":"poi_label","class":"food_and_drink_stores","maki":"convenience","distance":261}},{"type":"Feature","geometry":{"type":"Point","coordinates":[103.98892030119896,1.362014118871727]},"properties":{"name":"SkyTrain Depot","layer":"poi_label","class":"building","maki":"marker","distance":267}}]}