{"type":"FeatureCollection","features":[{"type":"Feature","geometry":{"type":"Point","coordinates":[2.2945761680603027,48.85844788185642]},"properties":{"name":"Madame Brasserie","layer":"poi_label","class":"food_and_drink","maki":"fast-food","distance":8}},{"type":"Feature","geometry":{"type":"Point","coordinates":[2.29470357298851,48.858394058990655]},"properties":{"name":"Snacks et boissons","layer":"poi_label","class":"food_and_drink","maki":"fast-food","distance":15}},{"type":"Feature","geometry":{"type":"Point","coordinates":[2.2944943606853485,48.85826435446984]},"properties":{"name":"Tour Eiffel 3e étage","layer":"poi_label","class":"sport_and_leisure","maki":"viewpoint","distance":15}},{"type":"Feature","geometry":{"type":"Point","coordinates":[2.294495701789856,48.858261707435304]},"properties":{"name":"Eiffel Tower","layer":"poi_label","class":"historic","maki":"monument","distance":15}},{"type":"Feature","geometry":{"type":"Point","coordinates":[2.2945815324783325,48.85826876619379]},"properties":{"name":"Gustave Eiffel’s Office","layer":"poi_label","class":"arts_and_entertainment","maki":"attraction","distance":16}},{"type":"Feature","geometry":{"type":"Point","coordinates":[2.2944970428943634,48.85825729571076]},"properties":{"name":"Tour Eiffel 2e étage","layer":"poi_label","class":"sport_and_leisure","maki":"viewpoint","distance":16}},{"type":"Feature","geometry":{"type":"Point","coordinates":[2.2947290539741516,48.858422293943846]},"properties":{"name":"Eiffel Pavilion","layer":"poi_label","class":"arts_and_entertainment","maki":"attraction","distance":17}},{"type":"Feature","geometry":{"type":"Point","coordinates":[2.2947826981544495,48.85834288309741]},"properties":{"name":"Kiosque Tour Eiffel","layer":"poi_label","class":"store_like","maki":"shop","distance":22}},{"type":"Feature","geometry":{"type":"Point","coordinates":[2.294240891933441,48.858261707435304]},"properties":{"name":"Buffets","layer":"poi_label","class":"store_like","maki":"marker","distance":24}},{"type":"Feature","geometry":{"type":"Point","coordinates":[2.2944970428943634,48.85813288491869]},"properties":{"name":"Le Jules Verne","layer":"poi_label","class":"food_and_drink","maki":"restaurant","distance":30}},{"type":"Feature","geometry":{"type":"Point","coordinates":[2.2949033975601196,48.85855199805542]},"properties":{"name":"Snacks Et Boissons","layer":"poi_label","class":"food_and_drink","maki":"fast-food","distance":34}},{"type":"Feature","geometry":{"type":"Point","coordinates":[2.2944889962673187,48.85873111270462]},"properties":{"name":"Gustave Eiffel","layer":"poi_label","class":"historic","maki":"monument","distance":37}},{"type":"Feature","geometry":{"type":"Point","coordinates":[2.294252961874008,48.85810200275927]},"properties":{"name":"Ferrié Pavilion","layer":"poi_label","class":"arts_and_entertainment","maki":"attraction","distance":38}},{"type":"Feature","geometry":{"type":"Point","coordinates":[2.294396460056305,48.8587884645504]},"properties":{"name":"Pilier Nord Tickets Office","layer":"poi_label","class":"store_like","maki":"marker","distance":44}},{"type":"Feature","geometry":{"type":"Point","coordinates":[2.294624447822571,48.8588122876055]},"properties":{"name":"Société d’Exploitation de la Tour Eiffel","layer":"poi_label","class":"general","maki":"marker","distance":47}},{"type":"Feature","geometry":{"type":"Point","coordinates":[2.2945010662078857,48.85796612103147]},"properties":{"name":"Paris Eiffel Tower","layer":"poi_label","class":"public_facilities","maki":"post","distance":48}},{"type":"Feature","geometry":{"type":"Point","coordinates":[2.2937433421611786,48.858259060400655]},"properties":{"name":"Caisse à billets","layer":"poi_label","class":"visitor_amenities","maki":"information","distance":58}},{"type":"Feature","geometry":{"type":"Point","coordinates":[2.2936655580997467,48.85833053028779]},"properties":{"name":"Pilier Ouest Tickets Office","layer":"poi_label","class":"store_like","maki":"marker","distance":62}},{"type":"Feature","geometry":{"type":"Point","coordinates":[2.2953245043754578,48.85818317868038]},"properties":{"name":"Pilier Est Tickets Office","layer":"poi_label","class":"store_like","maki":"marker","distance":65}},{"type":"Feature","geometry":{"type":"Point","coordinates":[2.29457750916481,48.85774641537958]},"properties":{"name":"Pilier Sud Tickets Office","layer":"poi_label","class":"store_like","maki":"marker","distance":73}},{"type":"Feature","geometry":{"type":"Point","coordinates":[2.29439914226532,48.85772435652589]},"properties":{"name":"Police nationale","layer":"poi_label","class":"public_facilities","maki":"police","distance":75}},{"type":"Feature","geometry":{"type":"Point","coordinates":[2.2957348823547363,48.85842935267968]},"properties":{"name":"Toilette Tour Eiffel","layer":"poi_label","class":"visitor_amenities","maki":"toilet","distance":91}},{"type":"Feature","geometry":{"type":"Point","coordinates":[2.2939418256282806,48.859240218330626]},"properties":{"name":"Tour Eiffel","layer":"transit_stop_label","class":"","maki":"bus","distance":102}},{"type":"Feature","geometry":{"type":"Point","coordinates":[2.293092906475067,48.85840729412695]},"properties":{"name":"Fruit Stand","layer":"poi_label","class":"food_and_drink","maki":"cafe","distance":103}},{"type":"Feature","geometry":{"type":"Point","coordinates":[2.2941644489765167,48.85740229615544]},"properties":{"name":"Centre émetteur TDF de la Tour Eiffel","layer":"poi_label","class":"general","maki":"marker","distance":114}},{"type":"Feature","geometry":{"type":"Point","coordinates":[2.2963906824588776,48.85847435209706]},"properties":{"name":"Mozza&co","layer":"poi_label","class":"food_and_drink","maki":"ice-cream","distance":139}},{"type":"Feature","geometry":{"type":"Point","coordinates":[2.2928501665592194,48.857677591723984]},"properties":{"name":"Les foodtrucks de la tour Eiffel","layer":"poi_label","class":"food_and_drink","maki":"fast-food","distance":145}},{"type":"Feature","geometry":{"type":"Point","coordinates":[2.2926221787929535,48.858920814712974]},"properties":{"name":"Le Carrousel de la Tour Eiffel","layer":"poi_label","class":"arts_and_entertainment","maki":"attraction","distance":149}},{"type":"Feature","geometry":{"type":"Point","coordinates":[2.294265031814575,48.857036115408704]},"properties":{"name":"Ma douce","layer":"poi_label","class":"food_and_drink","maki":"ice-cream","distance":153}},{"type":"Feature","geometry":{"type":"Point","coordinates":[2.2923043370246887,48.85809759102065]},"properties":{"name":"Tour eiffel","layer":"transit_stop_label","class":"","maki":"bus","distance":165}}]}