{"type":"FeatureCollection","features":[{"type":"Feature","geometry":{"type":"Point","coordinates":[-73.99635583162308,40.7056889372661]},"properties":{"name":"Brooklyn Bridge","layer":"poi_label","class":"landmark","maki":"bridge","distance":65}},{"type":"Feature","geometry":{"type":"Point","coordinates":[-73.9958368241787,40.70373388958751]},"properties":{"name":"DUMBO/Fulton Ferry","layer":"transit_stop_label","class":"","maki":"ferry","distance":278}},{"type":"Feature","geometry":{"type":"Point","coordinates":[-73.99809524416924,40.708564979533946]},"properties":{"name":"East River Waterfront Esplanade","layer":"poi_label","class":"park_like","maki":"park","distance":292}},{"type":"Feature","geometry":{"type":"Point","coordinates":[-73.99786725640297,40.708634108749095]},"properties":{"name":"BMCR Project","layer":"poi_label","class":"industrial","maki":"marker","distance":293}},{"type":"Feature","geometry":{"type":"Point","coordinates":[-73.99562761187553,40.70362002128749]},"properties":{"name":"Fulton Ferry Landing","layer":"poi_label","class":"landmark","maki":"marker","distance":296}},{"type":"Feature","geometry":{"type":"Point","coordinates":[-73.99482160806656,40.70375625655217]},"properties":{"name":"The River Café","layer":"poi_label","class":"food_and_drink","maki":"restaurant","distance":314}},{"type":"Feature","geometry":{"type":"Point","coordinates":[-73.9962512254715,40.70308422765547]},"properties":{"name":"Pier 1 Playground","layer":"poi_label","class":"park_like","maki":"playground","distance":339}},{"type":"Feature","geometry":{"type":"Point","coordinates":[-73.9992606639862,40.708633092143515]},"properties":{"name":"BMCR Interceptor Gate Building","layer":"poi_label","class":"building","maki":"marker","distance":345}},{"type":"Feature","geometry":{"type":"Point","coordinates":[-73.99494633078575,40.70328654871753]},"properties":{"name":"High Tide","layer":"poi_label","class":"food_and_drink","maki":"restaurant","distance":353}},{"type":"Feature","geometry":{"type":"Point","coordinates":[-73.99494230747223,40.70323063089751]},"properties":{"name":"Brookland Ferry Landing","layer":"poi_label","class":"historic","maki":"monument","distance":359}},{"type":"Feature","geometry":{"type":"Point","coordinates":[-74.00105506181717,40.70534835846516]},"properties":{"name":"The Fulton","layer":"poi_label","class":"food_and_drink","maki":"restaurant-seafood","distance":361}},{"type":"Feature","geometry":{"type":"Point","coordinates":[-73.99413362145424,40.70348581911253]},"properties":{"name":"Luke’s Lobster","layer":"poi_label","class":"food_and_drink","maki":"fast-food","distance":373}},{"type":"Feature","geometry":{"type":"Point","coordinates":[-73.99470627307892,40.70318487991892]},"properties":{"name":"Fulton Ferry Fireboat House","layer":"poi_label","class":"building","maki":"marker","distance":373}},{"type":"Feature","geometry":{"type":"Point","coordinates":[-73.99470761418343,40.70318284654138]},"properties":{"name":"Van Leeuwen Ice Cream","layer":"poi_label","class":"food_and_drink","maki":"ice-cream","distance":373}},{"type":"Feature","geometry":{"type":"Point","coordinates":[-74.00134474039078,40.7059014168895]},"properties":{"name":"PIER 17","layer":"poi_label","class":"arts_and_entertainment","maki":"attraction","distance":376}},{"type":"Feature","geometry":{"type":"Point","coordinates":[-74.00078013539314,40.707892999159185]},"properties":{"name":"Peck Slip Substation","layer":"poi_label","class":"building","maki":"marker","distance":384}},{"type":"Feature","geometry":{"type":"Point","coordinates":[-74.00053337216377,40.708232548335246]},"properties":{"name":"Cowgirl Seahorse","layer":"poi_label","class":"food_and_drink","maki":"restaurant","distance":388}},{"type":"Feature","geometry":{"type":"Point","coordinates":[-73.99551093578339,40.70277108630759]},"properties":{"name":"Breads Bakery","layer":"poi_label","class":"food_and_drink_stores","maki":"bakery","distance":388}},{"type":"Feature","geometry":{"type":"Point","coordinates":[-74.00148421525955,40.7057672193115]},"properties":{"name":"Malibu Farm","layer":"poi_label","class":"food_and_drink","maki":"restaurant","distance":389}},{"type":"Feature","geometry":{"type":"Point","coordinates":[-73.99590656161308,40.70267551690168]},"properties":{"name":"Pier 1 Wetlands","layer":"natural_label","class":"water","maki":"marker","distance":389}},{"type":"Feature","geometry":{"type":"Point","coordinates":[-73.9954049885273,40.70274160214379]},"properties":{"name":"Pier 1 Pavilion","layer":"poi_label","class":"building","maki":"marker","distance":394}},{"type":"Feature","geometry":{"type":"Point","coordinates":[-74.00123342871666,40.70743551998672]},"properties":{"name":"Citi Bike – Peck Slip & South St","layer":"poi_label","class":"commercial_services","maki":"bicycle","distance":395}},{"type":"Feature","geometry":{"type":"Point","coordinates":[-74.00157675147057,40.70552525632837]},"properties":{"name":"Pier 17","layer":"poi_label","class":"building","maki":"marker","distance":400}},{"type":"Feature","geometry":{"type":"Point","coordinates":[-74.00061786174774,40.70837284060315]},"properties":{"name":"Yondu Culinary Studio","layer":"poi_label","class":"food_and_drink","maki":"restaurant","distance":403}}]}