{"type":"FeatureCollection","features":[{"type":"Feature","geometry":{"type":"Point","coordinates":[-73.98965299129486,40.74107218751871]},"properties":{"name":"Flatiron District","layer":"place_label","class":"settlement_subdivision","maki":"marker","distance":5}},{"type":"Feature","geometry":{"type":"Point","coordinates":[-73.98965299129486,40.74100207587725]},"properties":{"name":"Flatiron Building","layer":"poi_label","class":"arts_and_entertainment","maki":"attraction","distance":12}},{"type":"Feature","geometry":{"type":"Point","coordinates":[-73.9895711839199,40.74120834614757]},"properties":{"name":"T-Mobile","layer":"poi_label","class":"store_like","maki":"mobile-phone","distance":16}},{"type":"Feature","geometry":{"type":"Point","coordinates":[-73.98986622691154,40.741309956882986]},"properties":{"name":"5th Avenue & East 23rd Street","layer":"transit_stop_label","class":"","maki":"bus","distance":27}},{"type":"Feature","geometry":{"type":"Point","coordinates":[-73.98931637406349,40.74110978358587]},"properties":{"name":"Flat Iron Plate","layer":"poi_label","class":"store_like","maki":"marker","distance":32}},{"type":"Feature","geometry":{"type":"Point","coordinates":[-73.9900915324688,40.7412185072281]},"properties":{"name":"Ten Ichi Mart & Deli","layer":"poi_label","class":"food_and_drink_stores","maki":"convenience","distance":36}},{"type":"Feature","geometry":{"type":"Point","coordinates":[-73.98934453725815,40.741302844136584]},"properties":{"name":"23rd Street","layer":"transit_stop_label","class":"","maki":"rail-metro","distance":38}},{"type":"Feature","geometry":{"type":"Point","coordinates":[-73.99016663432121,40.74111689635296]},"properties":{"name":"S&P Sandwich Shop","layer":"poi_label","class":"food_and_drink","maki":"fast-food","distance":39}},{"type":"Feature","geometry":{"type":"Point","coordinates":[-73.98996412754059,40.74139734199133]},"properties":{"name":"Duane Reade express","layer":"poi_label","class":"medical","maki":"pharmacy","distance":40}},{"type":"Feature","geometry":{"type":"Point","coordinates":[-73.99020418524742,40.74106507474687]},"properties":{"name":"Rituals","layer":"poi_label","class":"store_like","maki":"shop","distance":43}},{"type":"Feature","geometry":{"type":"Point","coordinates":[-73.9902001619339,40.74117887900525]},"properties":{"name":"Flatiron Tailor","layer":"poi_label","class":"store_like","maki":"clothing-store","distance":43}},{"type":"Feature","geometry":{"type":"Point","coordinates":[-73.98988902568817,40.74148879140037]},"properties":{"name":"Bank of America","layer":"poi_label","class":"commercial_services","maki":"bank","distance":46}},{"type":"Feature","geometry":{"type":"Point","coordinates":[-73.98976966738701,40.74062509752355]},"properties":{"name":"Harry Potter","layer":"poi_label","class":"store_like","maki":"shop","distance":53}},{"type":"Feature","geometry":{"type":"Point","coordinates":[-73.98906961083412,40.7411138480243]},"properties":{"name":"Broadway & 23rd Street at Southeast Corner","layer":"transit_stop_label","class":"","maki":"entrance","distance":53}},{"type":"Feature","geometry":{"type":"Point","coordinates":[-73.9889945089817,40.741097590269135]},"properties":{"name":"TD Bank","layer":"poi_label","class":"commercial_services","maki":"bank","distance":60}},{"type":"Feature","geometry":{"type":"Point","coordinates":[-73.98907899856567,40.740813078910406]},"properties":{"name":"QB house","layer":"poi_label","class":"store_like","maki":"marker","distance":61}},{"type":"Feature","geometry":{"type":"Point","coordinates":[-73.98909509181976,40.740729757496354]},"properties":{"name":"Gumpton Coffee","layer":"poi_label","class":"food_and_drink","maki":"cafe","distance":66}},{"type":"Feature","geometry":{"type":"Point","coordinates":[-73.99025782942772,40.74155890252882]},"properties":{"name":"Online Marketing Group","layer":"poi_label","class":"general","maki":"marker","distance":69}},{"type":"Feature","geometry":{"type":"Point","coordinates":[-73.99051398038864,40.741201233390285]},"properties":{"name":"Juice Press","layer":"poi_label","class":"food_and_drink","maki":"fast-food","distance":70}},{"type":"Feature","geometry":{"type":"Point","coordinates":[-73.98966506123543,40.74176009057405]},"properties":{"name":"Lego","layer":"poi_label","class":"store_like","maki":"shop","distance":73}},{"type":"Feature","geometry":{"type":"Point","coordinates":[-73.98887515068054,40.74088115852487]},"properties":{"name":"Madison Green Residential Plaza","layer":"poi_label","class":"place_like","maki":"marker","distance":74}},{"type":"Feature","geometry":{"type":"Point","coordinates":[-73.98891404271126,40.74139124535958]},"properties":{"name":"Broadway & 23rd Street at Northeast Corner","layer":"transit_stop_label","class":"","maki":"entrance","distance":74}},{"type":"Feature","geometry":{"type":"Point","coordinates":[-73.9904348552227,40.74071654799431]},"properties":{"name":"CBD Kratom","layer":"poi_label","class":"store_like","maki":"marker","distance":75}},{"type":"Feature","geometry":{"type":"Point","coordinates":[-73.99024844169617,40.74163612629491]},"properties":{"name":"Lava Shawarma NYC","layer":"poi_label","class":"food_and_drink","maki":"restaurant","distance":75}},{"type":"Feature","geometry":{"type":"Point","coordinates":[-73.99027794599533,40.740556001528915]},"properties":{"name":"Albert Building","layer":"poi_label","class":"building","maki":"marker","distance":78}},{"type":"Feature","geometry":{"type":"Point","coordinates":[-73.98970797657967,40.740385293469785]},"properties":{"name":"Le Pain Quotidien","layer":"poi_label","class":"building","maki":"marker","distance":79}},{"type":"Feature","geometry":{"type":"Point","coordinates":[-73.98872762918472,40.74107828417971]},"properties":{"name":"East 23rd Street & Broadway","layer":"transit_stop_label","class":"","maki":"bus","distance":82}},{"type":"Feature","geometry":{"type":"Point","coordinates":[-73.99048984050751,40.74066269384343]},"properties":{"name":"Elieen Fisher","layer":"poi_label","class":"store_like","maki":"clothing-store","distance":83}},{"type":"Feature","geometry":{"type":"Point","coordinates":[-73.99066552519798,40.741298779709695]},"properties":{"name":"Montessori Flatiron","layer":"poi_label","class":"education","maki":"school","distance":84}},{"type":"Feature","geometry":{"type":"Point","coordinates":[-73.99053946137428,40.740680983937324]},"properties":{"name":"LL Studio Yoga","layer":"poi_label","class":"sport_and_leisure","maki":"marker","distance":85}},{"type":"Feature","geometry":{"type":"Point","coordinates":[-73.98870885372162,40.74097565697869]},"properties":{"name":"LensCrafters","layer":"poi_label","class":"store_like","maki":"optician","distance":85}},{"type":"Feature","geometry":{"type":"Point","coordinates":[-73.98974686861038,40.74033042292919]},"properties":{"name":"Peter Manning NYC","layer":"poi_label","class":"store_like","maki":"clothing-store","distance":86}},{"type":"Feature","geometry":{"type":"Point","coordinates":[-73.99070844054222,40.7410203658778]},"properties":{"name":"Sagaponack Bar & Grill","layer":"poi_label","class":"food_and_drink","maki":"restaurant-seafood","distance":86}},{"type":"Feature","geometry":{"type":"Point","coordinates":[-73.9896784722805,40.7403263584429]},"properties":{"name":"Villa & House","layer":"poi_label","class":"store_like","maki":"marker","distance":86}},{"type":"Feature","geometry":{"type":"Point","coordinates":[-73.99040266871452,40.74167677034629]},"properties":{"name":"Lenwich","layer":"poi_label","class":"food_and_drink","maki":"fast-food","distance":87}},{"type":"Feature","geometry":{"type":"Point","coordinates":[-73.98923724889755,40.740378180624504]},"properties":{"name":"Wolfhome","layer":"poi_label","class":"store_like","maki":"furniture","distance":89}},{"type":"Feature","geometry":{"type":"Point","coordinates":[-73.99053812026978,40.74060477517966]},"properties":{"name":"alo","layer":"poi_label","class":"store_like","maki":"clothing-store","distance":90}},{"type":"Feature","geometry":{"type":"Point","coordinates":[-73.98956313729286,40.74191250535472]},"properties":{"name":"Marimekko","layer":"poi_label","class":"store_like","maki":"clothing-store","distance":91}},{"type":"Feature","geometry":{"type":"Point","coordinates":[-73.98980185389519,40.74193384339614]},"properties":{"name":"Baita by Birreria","layer":"poi_label","class":"food_and_drink","maki":"restaurant","distance":93}}]}