{"type":"FeatureCollection","features":[{"type":"Feature","geometry":{"type":"Point","coordinates":[103.85426536202431,1.28646843182716]},"properties":{"name":"MOS Burger","layer":"poi_label","class":"food_and_drink","maki":"fast-food","distance":45}},{"type":"Feature","geometry":{"type":"Point","coordinates":[103.85421842336655,1.2864992694557458]},"properties":{"name":"Cone Jipangyi","layer":"poi_label","class":"food_and_drink","maki":"ice-cream","distance":46}},{"type":"Feature","geometry":{"type":"Point","coordinates":[103.85414063930511,1.2864791579588797]},"properties":{"name":"Bistro Aseana","layer":"poi_label","class":"food_and_drink","maki":"restaurant","distance":53}},{"type":"Feature","geometry":{"type":"Point","coordinates":[103.85423719882965,1.2863745781726834]},"properties":{"name":"Palm Beach","layer":"poi_label","class":"food_and_drink","maki":"restaurant-seafood","distance":55}},{"type":"Feature","geometry":{"type":"Point","coordinates":[103.85413929820061,1.2863799412387493]},"properties":{"name":"PS.Cafe","layer":"poi_label","class":"food_and_drink","maki":"restaurant","distance":61}},{"type":"Feature","geometry":{"type":"Point","coordinates":[103.85420635342598,1.2863075398459358]},"properties":{"name":"OverEasy Bar and Diner","layer":"poi_label","class":"food_and_drink","maki":"restaurant","distance":64}},{"type":"Feature","geometry":{"type":"Point","coordinates":[103.85422512888908,1.2862753614484603]},"properties":{"name":"St Pierre","layer":"poi_label","class":"food_and_drink","maki":"restaurant","distance":66}},{"type":"Feature","geometry":{"type":"Point","coordinates":[103.85382816195488,1.2869390408140333]},"properties":{"name":"7-Eleven","layer":"poi_label","class":"food_and_drink_stores","maki":"convenience","distance":76}},{"type":"Feature","geometry":{"type":"Point","coordinates":[103.8535974919796,1.2869859676313098]},"properties":{"name":"Ya Kun Kaya Toast","layer":"poi_label","class":"food_and_drink","maki":"cafe","distance":103}},{"type":"Feature","geometry":{"type":"Point","coordinates":[103.85359615087509,1.2870959104570119]},"properties":{"name":"SF Fruits & Juices","layer":"poi_label","class":"food_and_drink_stores","maki":"marker","distance":106}},{"type":"Feature","geometry":{"type":"Point","coordinates":[103.85353714227676,1.2870355759800844]},"properties":{"name":"The Rooftop","layer":"poi_label","class":"food_and_drink","maki":"bar","distance":110}},{"type":"Feature","geometry":{"type":"Point","coordinates":[103.85354787111282,1.287078480497172]},"properties":{"name":"The Fullerton Waterboat House","layer":"poi_label","class":"building","maki":"marker","distance":110}},{"type":"Feature","geometry":{"type":"Point","coordinates":[103.85549649596214,1.2867888749928937]},"properties":{"name":"Downtown Core","layer":"place_label","class":"settlement_subdivision","maki":"marker","distance":111}},{"type":"Feature","geometry":{"type":"Point","coordinates":[103.85403200984001,1.2858798352798289]},"properties":{"name":"LITTLE SHEEP","layer":"poi_label","class":"food_and_drink","maki":"restaurant","distance":114}},{"type":"Feature","geometry":{"type":"Point","coordinates":[103.85348483920097,1.2870409390447577]},"properties":{"name":"Picotin","layer":"poi_label","class":"food_and_drink","maki":"restaurant","distance":116}},{"type":"Feature","geometry":{"type":"Point","coordinates":[103.85435119271278,1.287864169338448]},"properties":{"name":"Jubilee Bridge","layer":"poi_label","class":"landmark","maki":"bridge","distance":119}},{"type":"Feature","geometry":{"type":"Point","coordinates":[103.85344728827477,1.287110658884501]},"properties":{"name":"Starbucks","layer":"poi_label","class":"food_and_drink","maki":"cafe","distance":122}},{"type":"Feature","geometry":{"type":"Point","coordinates":[103.8539756834507,1.285790003904168]},"properties":{"name":"One Fullerton","layer":"poi_label","class":"building","maki":"marker","distance":126}},{"type":"Feature","geometry":{"type":"Point","coordinates":[103.85415941476822,1.2856854240897206]},"properties":{"name":"Merlion Park","layer":"poi_label","class":"park_like","maki":"park","distance":129}},{"type":"Feature","geometry":{"type":"Point","coordinates":[103.85384827852249,1.2858141377069074]},"properties":{"name":"Taxi","layer":"poi_label","class":"commercial_services","maki":"marker","distance":131}},{"type":"Feature","geometry":{"type":"Point","coordinates":[103.85397970676422,1.285725647095802]},"properties":{"name":"Issoh Izakaya","layer":"poi_label","class":"food_and_drink","maki":"restaurant","distance":132}},{"type":"Feature","geometry":{"type":"Point","coordinates":[103.85469987988472,1.2855620735338391]},"properties":{"name":"Clifford Pier","layer":"place_label","class":"settlement_subdivision","maki":"marker","distance":139}},{"type":"Feature","geometry":{"type":"Point","coordinates":[103.85400921106339,1.2879982459083266]},"properties":{"name":"Esplanade Bridge","layer":"poi_label","class":"landmark","maki":"bridge","distance":143}},{"type":"Feature","geometry":{"type":"Point","coordinates":[103.85392874479294,1.2853730253877274]},"properties":{"name":"Jing","layer":"poi_label","class":"food_and_drink","maki":"restaurant-seafood","distance":170}},{"type":"Feature","geometry":{"type":"Point","coordinates":[103.85305568575859,1.286231116151285]},"properties":{"name":"The Fullerton Hotel","layer":"poi_label","class":"lodging","maki":"lodging","distance":173}},{"type":"Feature","geometry":{"type":"Point","coordinates":[103.85300070047379,1.2872836177094484]},"properties":{"name":"Anderson Bridge","layer":"poi_label","class":"landmark","maki":"bridge","distance":175}},{"type":"Feature","geometry":{"type":"Point","coordinates":[103.85342180728912,1.2856183857448826]},"properties":{"name":"Fullerton Square","layer":"transit_stop_label","class":"","maki":"bus","distance":177}},{"type":"Feature","geometry":{"type":"Point","coordinates":[103.85388985276222,1.2852604009536037]},"properties":{"name":"Brewerkz","layer":"poi_label","class":"food_and_drink","maki":"beer","distance":183}},{"type":"Feature","geometry":{"type":"Point","coordinates":[103.85388180613518,1.2852255410086997]},"properties":{"name":"The Pelican","layer":"poi_label","class":"food_and_drink","maki":"restaurant","distance":187}},{"type":"Feature","geometry":{"type":"Point","coordinates":[103.85280758142471,1.2864389349646927]},"properties":{"name":"Town","layer":"poi_label","class":"food_and_drink","maki":"restaurant","distance":193}},{"type":"Feature","geometry":{"type":"Point","coordinates":[103.85267212986946,1.287368085968538]},"properties":{"name":"From Chettiars to Financiers","layer":"poi_label","class":"visitor_amenities","maki":"information","distance":213}},{"type":"Feature","geometry":{"type":"Point","coordinates":[103.85260373353958,1.2872112163422997]},"properties":{"name":"A Great Emporium","layer":"poi_label","class":"visitor_amenities","maki":"information","distance":216}},{"type":"Feature","geometry":{"type":"Point","coordinates":[103.8525541126728,1.286170781653908]},"properties":{"name":"Fullerton Building","layer":"poi_label","class":"historic","maki":"monument","distance":227}},{"type":"Feature","geometry":{"type":"Point","coordinates":[103.85246828198433,1.2870878658601725]},"properties":{"name":"Jose Rizal Mercado","layer":"poi_label","class":"historic","maki":"monument","distance":228}},{"type":"Feature","geometry":{"type":"Point","coordinates":[103.85256081819534,1.2861171509883746]},"properties":{"name":"Joseph Conrad Korzeniowski","layer":"poi_label","class":"historic","maki":"monument","distance":229}},{"type":"Feature","geometry":{"type":"Point","coordinates":[103.85243609547615,1.2871213850135064]},"properties":{"name":"Jose Rizal","layer":"poi_label","class":"visitor_amenities","maki":"information","distance":232}},{"type":"Feature","geometry":{"type":"Point","coordinates":[103.85245621204376,1.2861184917550332]},"properties":{"name":"The River Merchants","layer":"poi_label","class":"visitor_amenities","maki":"information","distance":240}},{"type":"Feature","geometry":{"type":"Point","coordinates":[103.8540481030941,1.28467314489518]},"properties":{"name":"Marina Bay View","layer":"poi_label","class":"sport_and_leisure","maki":"viewpoint","distance":240}},{"type":"Feature","geometry":{"type":"Point","coordinates":[103.85235294699669,1.286551559346833]},"properties":{"name":"Cavenagh Bridge","layer":"poi_label","class":"landmark","maki":"bridge","distance":241}}]}