{"type":"FeatureCollection","features":[{"type":"Feature","geometry":{"type":"Point","coordinates":[-74.01680767536163,40.70334043311783]},"properties":{"name":"Park Store","layer":"poi_label","class":"store_like","maki":"shop","distance":17}},{"type":"Feature","geometry":{"type":"Point","coordinates":[-74.01692569255829,40.703518352997946]},"properties":{"name":"Statue of Liberty & Ellis Island Tickets","layer":"poi_label","class":"store_like","maki":"marker","distance":25}},{"type":"Feature","geometry":{"type":"Point","coordinates":[-74.01735216379166,40.703238764401505]},"properties":{"name":"Statue Cruises","layer":"poi_label","class":"building","maki":"marker","distance":31}},{"type":"Feature","geometry":{"type":"Point","coordinates":[-74.0170182287693,40.7029439242466]},"properties":{"name":"Admiral George Dewey","layer":"poi_label","class":"historic","maki":"monument","distance":40}},{"type":"Feature","geometry":{"type":"Point","coordinates":[-74.01656091213226,40.703456335265145]},"properties":{"name":"Castle Clinton","layer":"poi_label","class":"historic","maki":"castle","distance":41}},{"type":"Feature","geometry":{"type":"Point","coordinates":[-74.01726230978966,40.702856488639355]},"properties":{"name":"Battery Park","layer":"transit_stop_label","class":"","maki":"ferry","distance":54}},{"type":"Feature","geometry":{"type":"Point","coordinates":[-74.0173414349556,40.70377964018897]},"properties":{"name":"Norwegian Veterans Monument","layer":"poi_label","class":"historic","maki":"monument","distance":61}},{"type":"Feature","geometry":{"type":"Point","coordinates":[-74.0178282558918,40.7035925708646]},"properties":{"name":"NY Water Taxi","layer":"poi_label","class":"landmark","maki":"marker","distance":77}},{"type":"Feature","geometry":{"type":"Point","coordinates":[-74.01704505085945,40.70406329321648]},"properties":{"name":"New York Korean War Veterans Memorial","layer":"poi_label","class":"historic","maki":"monument","distance":85}},{"type":"Feature","geometry":{"type":"Point","coordinates":[-74.01780277490616,40.7039911092273]},"properties":{"name":"American Merchant Mariners’ Memorial","layer":"poi_label","class":"historic","maki":"monument","distance":102}},{"type":"Feature","geometry":{"type":"Point","coordinates":[-74.01610091328621,40.70250572836363]},"properties":{"name":"Pixie Scout Canteen","layer":"poi_label","class":"food_and_drink","maki":"cafe","distance":116}},{"type":"Feature","geometry":{"type":"Point","coordinates":[-74.01654347777367,40.70226985374819]},"properties":{"name":"Gardens of Remembrance","layer":"poi_label","class":"park_like","maki":"garden","distance":121}},{"type":"Feature","geometry":{"type":"Point","coordinates":[-74.01638120412827,40.704379478500755]},"properties":{"name":"Giovanni Da Verrazzano","layer":"poi_label","class":"historic","maki":"monument","distance":131}},{"type":"Feature","geometry":{"type":"Point","coordinates":[-74.01789128780365,40.70440896193952]},"properties":{"name":"City Pier A","layer":"poi_label","class":"landmark","maki":"marker","distance":144}},{"type":"Feature","geometry":{"type":"Point","coordinates":[-74.01819571852684,40.70426967799338]},"properties":{"name":"Liberty Gateway","layer":"poi_label","class":"building","maki":"marker","distance":148}},{"type":"Feature","geometry":{"type":"Point","coordinates":[-74.0160083770752,40.702072613126745]},"properties":{"name":"East Coast Memorial","layer":"poi_label","class":"historic","maki":"monument","distance":160}},{"type":"Feature","geometry":{"type":"Point","coordinates":[-74.01625245809555,40.70465499564358]},"properties":{"name":"Peter Caesar Alberti Marker","layer":"poi_label","class":"historic","maki":"monument","distance":163}},{"type":"Feature","geometry":{"type":"Point","coordinates":[-74.01571467518806,40.70219665111151]},"properties":{"name":"Bosque Gardens","layer":"poi_label","class":"park_like","maki":"garden","distance":164}},{"type":"Feature","geometry":{"type":"Point","coordinates":[-74.01500523090363,40.70338618398952]},"properties":{"name":"Battery Urban Farm","layer":"poi_label","class":"park_like","maki":"garden","distance":169}},{"type":"Feature","geometry":{"type":"Point","coordinates":[-74.0158648788929,40.70476581218037]},"properties":{"name":"Battery Place & West Street","layer":"transit_stop_label","class":"","maki":"bus","distance":189}},{"type":"Feature","geometry":{"type":"Point","coordinates":[-74.01567175984383,40.70467837896484]},"properties":{"name":"Walloon Settlers Memorial","layer":"poi_label","class":"historic","maki":"monument","distance":190}},{"type":"Feature","geometry":{"type":"Point","coordinates":[-74.0146766602993,40.70315539593835]},"properties":{"name":"World War I/II victims","layer":"poi_label","class":"historic","maki":"monument","distance":197}},{"type":"Feature","geometry":{"type":"Point","coordinates":[-74.01454389095306,40.703363816900634]},"properties":{"name":"State Street & Bridge Street","layer":"transit_stop_label","class":"","maki":"bus","distance":208}},{"type":"Feature","geometry":{"type":"Point","coordinates":[-74.01533782482147,40.70468752895789]},"properties":{"name":"Salvation Army Monument","layer":"poi_label","class":"historic","maki":"monument","distance":209}}]}