{"type":"FeatureCollection","features":[{"type":"Feature","geometry":{"type":"Point","coordinates":[2.3369738459587097,48.860733976702335]},"properties":{"name":"Louvre","layer":"poi_label","class":"store_like","maki":"shop","distance":48}},{"type":"Feature","geometry":{"type":"Point","coordinates":[2.336508482694626,48.86018606460294]},"properties":{"name":"Hommage à Arago","layer":"poi_label","class":"historic","maki":"monument","distance":92}},{"type":"Feature","geometry":{"type":"Point","coordinates":[2.336397171020508,48.860863674823776]},"properties":{"name":"Louvre Museum","layer":"poi_label","class":"arts_and_entertainment","maki":"museum","distance":93}},{"type":"Feature","geometry":{"type":"Point","coordinates":[2.3383645713329315,48.86138775768745]},"properties":{"name":"Jardin de l'Oratoire","layer":"poi_label","class":"park_like","maki":"garden","distance":104}},{"type":"Feature","geometry":{"type":"Point","coordinates":[2.337482124567032,48.86153686443549]},"properties":{"name":"Cour Khorsabad","layer":"poi_label","class":"building","maki":"marker","distance":105}},{"type":"Feature","geometry":{"type":"Point","coordinates":[2.337382882833481,48.85961961776954]},"properties":{"name":"Jardin de l'Infante","layer":"poi_label","class":"park_like","maki":"garden","distance":110}},{"type":"Feature","geometry":{"type":"Point","coordinates":[2.3368746042251587,48.861472457433166]},"properties":{"name":"Louvre Palace","layer":"poi_label","class":"historic","maki":"castle","distance":111}},{"type":"Feature","geometry":{"type":"Point","coordinates":[2.3358526825904846,48.86101278313308]},"properties":{"name":"Louvre Pyramid","layer":"poi_label","class":"arts_and_entertainment","maki":"attraction","distance":136}},{"type":"Feature","geometry":{"type":"Point","coordinates":[2.336827665567398,48.861722144391024]},"properties":{"name":"Cour Puget","layer":"poi_label","class":"building","maki":"marker","distance":137}},{"type":"Feature","geometry":{"type":"Point","coordinates":[2.33953133225441,48.860405759546694]},"properties":{"name":"Le cercueil de Mesrê","layer":"poi_label","class":"historic","maki":"marker","distance":143}},{"type":"Feature","geometry":{"type":"Point","coordinates":[2.3358607292175293,48.85999636738978]},"properties":{"name":"Cour Visconti","layer":"poi_label","class":"building","maki":"marker","distance":144}},{"type":"Feature","geometry":{"type":"Point","coordinates":[2.339564859867096,48.86055398691576]},"properties":{"name":"Cuve de sarcophage de Djedhor","layer":"poi_label","class":"historic","maki":"marker","distance":144}},{"type":"Feature","geometry":{"type":"Point","coordinates":[2.3395782709121704,48.86049575478742]},"properties":{"name":"Le Sarcophage du Grec d'Egypte Dioskoridès","layer":"poi_label","class":"historic","maki":"marker","distance":146}},{"type":"Feature","geometry":{"type":"Point","coordinates":[2.33621746301651,48.86156068618246]},"properties":{"name":"Café Richelieu","layer":"poi_label","class":"food_and_drink","maki":"cafe","distance":147}},{"type":"Feature","geometry":{"type":"Point","coordinates":[2.339603751897812,48.860450757187294]},"properties":{"name":"Ensemble funéraire de Tamoutnéfret","layer":"poi_label","class":"historic","maki":"marker","distance":148}},{"type":"Feature","geometry":{"type":"Point","coordinates":[2.3396198451519012,48.86047899098034]},"properties":{"name":"Cartonnage du Barbier d'Amon Ânkhpakhéred","layer":"poi_label","class":"historic","maki":"marker","distance":149}},{"type":"Feature","geometry":{"type":"Point","coordinates":[2.339627891778946,48.86053104699451]},"properties":{"name":"Sarcophage d'Abou Roach","layer":"poi_label","class":"historic","maki":"marker","distance":149}},{"type":"Feature","geometry":{"type":"Point","coordinates":[2.3396319150924683,48.86050193092544]},"properties":{"name":"Le cercueil de Ânkhapy","layer":"poi_label","class":"historic","maki":"marker","distance":149}},{"type":"Feature","geometry":{"type":"Point","coordinates":[2.3396600782871246,48.86045958024931]},"properties":{"name":"Sarcophage de Iniouya","layer":"poi_label","class":"historic","maki":"marker","distance":152}},{"type":"Feature","geometry":{"type":"Point","coordinates":[2.3396922647953033,48.860531929299356]},"properties":{"name":"Cercueil extérieur de l'intendant Sopi","layer":"poi_label","class":"historic","maki":"marker","distance":154}},{"type":"Feature","geometry":{"type":"Point","coordinates":[2.335820496082306,48.86133482027361]},"properties":{"name":"Starbucks","layer":"poi_label","class":"food_and_drink","maki":"cafe","distance":154}},{"type":"Feature","geometry":{"type":"Point","coordinates":[2.3377342522144318,48.862046823801876]},"properties":{"name":"Gregoire","layer":"poi_label","class":"lodging","maki":"lodging","distance":161}},{"type":"Feature","geometry":{"type":"Point","coordinates":[2.339787483215332,48.86078250324971]},"properties":{"name":"Sarcophage de serpent","layer":"poi_label","class":"historic","maki":"marker","distance":162}},{"type":"Feature","geometry":{"type":"Point","coordinates":[2.339787483215332,48.86079838465497]},"properties":{"name":"Sarcophage d'Ibis","layer":"poi_label","class":"historic","maki":"marker","distance":162}},{"type":"Feature","geometry":{"type":"Point","coordinates":[2.339792847633362,48.860792208553505]},"properties":{"name":"Sarcophage de scarabée","layer":"poi_label","class":"historic","maki":"marker","distance":162}},{"type":"Feature","geometry":{"type":"Point","coordinates":[2.3357735574245453,48.861423931554725]},"properties":{"name":"Bistrot Benoit","layer":"poi_label","class":"food_and_drink","maki":"cafe","distance":162}},{"type":"Feature","geometry":{"type":"Point","coordinates":[2.339799553155899,48.86080103155538]},"properties":{"name":"Sarcophage de chat","layer":"poi_label","class":"historic","maki":"marker","distance":163}}]}