{"type":"FeatureCollection","features":[{"type":"Feature","geometry":{"type":"Point","coordinates":[-0.12457385659217834,51.500700277954905]},"properties":{"name":"Elizabeth Tower","layer":"poi_label","class":"arts_and_entertainment","maki":"attraction","distance":2}},{"type":"Feature","geometry":{"type":"Point","coordinates":[-0.1245725154876709,51.50070445217648]},"properties":{"name":"Big Ben","layer":"poi_label","class":"arts_and_entertainment","maki":"attraction","distance":2}},{"type":"Feature","geometry":{"type":"Point","coordinates":[-0.12407094240188599,51.500668553858276]},"properties":{"name":"Speaker’s Green","layer":"poi_label","class":"park_like","maki":"garden","distance":37}},{"type":"Feature","geometry":{"type":"Point","coordinates":[-0.12461677193641663,51.50111936789526]},"properties":{"name":"Caffè Nero","layer":"poi_label","class":"food_and_drink","maki":"cafe","distance":47}},{"type":"Feature","geometry":{"type":"Point","coordinates":[-0.1245000958442688,51.501116863385136]},"properties":{"name":"Treats","layer":"poi_label","class":"food_and_drink","maki":"cafe","distance":47}},{"type":"Feature","geometry":{"type":"Point","coordinates":[-0.12487828731536865,51.50113105560729]},"properties":{"name":"Lola’s Cupcakes","layer":"poi_label","class":"food_and_drink_stores","maki":"marker","distance":52}},{"type":"Feature","geometry":{"type":"Point","coordinates":[-0.12389257550239563,51.50039722844565]},"properties":{"name":"Speaker’s House","layer":"poi_label","class":"general","maki":"marker","distance":60}},{"type":"Feature","geometry":{"type":"Point","coordinates":[-0.1252390444278717,51.50106009445241]},"properties":{"name":"Westminster Station / Westminster Pier","layer":"transit_stop_label","class":"","maki":"bus","distance":60}},{"type":"Feature","geometry":{"type":"Point","coordinates":[-0.12521758675575256,51.50115276135023]},"properties":{"name":"Pret A Manger","layer":"poi_label","class":"food_and_drink","maki":"fast-food","distance":66}},{"type":"Feature","geometry":{"type":"Point","coordinates":[-0.1252765953540802,51.501141073643765]},"properties":{"name":"Tesco Express","layer":"poi_label","class":"food_and_drink_stores","maki":"convenience","distance":68}},{"type":"Feature","geometry":{"type":"Point","coordinates":[-0.12476831674575806,51.50130804059438]},"properties":{"name":"Costa","layer":"poi_label","class":"food_and_drink","maki":"cafe","distance":69}},{"type":"Feature","geometry":{"type":"Point","coordinates":[-0.1248621940612793,51.50132473725583]},"properties":{"name":"Portcullis House","layer":"poi_label","class":"building","maki":"marker","distance":72}},{"type":"Feature","geometry":{"type":"Point","coordinates":[-0.12521222233772278,51.501232070707715]},"properties":{"name":"Greggs","layer":"poi_label","class":"food_and_drink","maki":"fast-food","distance":73}},{"type":"Feature","geometry":{"type":"Point","coordinates":[-0.12374773621559143,51.50109599246221]},"properties":{"name":"Boudica","layer":"poi_label","class":"historic","maki":"monument","distance":74}},{"type":"Feature","geometry":{"type":"Point","coordinates":[-0.12493059039115906,51.501356460895664]},"properties":{"name":"Westminster","layer":"transit_stop_label","class":"","maki":"rail-metro","distance":77}},{"type":"Feature","geometry":{"type":"Point","coordinates":[-0.125768780708313,51.500763726081885]},"properties":{"name":"New Palace Yard Vent Shaft","layer":"poi_label","class":"industrial","maki":"marker","distance":81}},{"type":"Feature","geometry":{"type":"Point","coordinates":[-0.12523368000984192,51.501326406921606]},"properties":{"name":"Cards Galore","layer":"poi_label","class":"store_like","maki":"shop","distance":82}},{"type":"Feature","geometry":{"type":"Point","coordinates":[-0.12559443712234497,51.501146082661194]},"properties":{"name":"St Stephen’s Tavern","layer":"poi_label","class":"food_and_drink","maki":"beer","distance":85}},{"type":"Feature","geometry":{"type":"Point","coordinates":[-0.12461543083190918,51.49993137981579]},"properties":{"name":"House of Commons","layer":"poi_label","class":"general","maki":"marker","distance":86}},{"type":"Feature","geometry":{"type":"Point","coordinates":[-0.12555822730064392,51.50020187314834]},"properties":{"name":"Jubilee Cafe","layer":"poi_label","class":"food_and_drink","maki":"cafe","distance":87}},{"type":"Feature","geometry":{"type":"Point","coordinates":[-0.12380540370941162,51.501327241754495]},"properties":{"name":"CityLoos","layer":"poi_label","class":"visitor_amenities","maki":"toilet","distance":89}},{"type":"Feature","geometry":{"type":"Point","coordinates":[-0.12399852275848389,51.49998063643727]},"properties":{"name":"Commons Library","layer":"poi_label","class":"public_facilities","maki":"library","distance":90}},{"type":"Feature","geometry":{"type":"Point","coordinates":[-0.1255662739276886,51.50014760763938]},"properties":{"name":"Jubilee Shop","layer":"poi_label","class":"store_like","maki":"shop","distance":91}},{"type":"Feature","geometry":{"type":"Point","coordinates":[-0.12592434883117676,51.500729497498014]},"properties":{"name":"PC Keith Palmer GM","layer":"poi_label","class":"historic","maki":"monument","distance":92}},{"type":"Feature","geometry":{"type":"Point","coordinates":[-0.12586936354637146,51.50113022077079]},"properties":{"name":"Houses of Parliament Shop","layer":"poi_label","class":"store_like","maki":"shop","distance":100}},{"type":"Feature","geometry":{"type":"Point","coordinates":[-0.12584790587425232,51.50022357933386]},"properties":{"name":"Cromwell Green Visitor Entrance Security","layer":"poi_label","class":"building","maki":"marker","distance":102}},{"type":"Feature","geometry":{"type":"Point","coordinates":[-0.12379065155982971,51.50149170353359]},"properties":{"name":"Westminster Pier","layer":"poi_label","class":"commercial_services","maki":"bicycle","distance":104}},{"type":"Feature","geometry":{"type":"Point","coordinates":[-0.1253718137741089,51.49988963687457]},"properties":{"name":"Westminster Hall","layer":"poi_label","class":"arts_and_entertainment","maki":"attraction","distance":105}},{"type":"Feature","geometry":{"type":"Point","coordinates":[-0.12633204460144043,51.50054833602857]},"properties":{"name":"Flags Of UK Overseas Territories","layer":"poi_label","class":"arts_and_entertainment","maki":"attraction","distance":121}},{"type":"Feature","geometry":{"type":"Point","coordinates":[-0.1258707046508789,51.49986542595113]},"properties":{"name":"Cromwell Green","layer":"poi_label","class":"park_like","maki":"garden","distance":128}},{"type":"Feature","geometry":{"type":"Point","coordinates":[-0.12643128633499146,51.500841366432866]},"properties":{"name":"Winston Churchill","layer":"poi_label","class":"historic","maki":"monument","distance":128}},{"type":"Feature","geometry":{"type":"Point","coordinates":[-0.1259806752204895,51.501532610178316]},"properties":{"name":"Westminster Station / Parliament Square","layer":"transit_stop_label","class":"","maki":"bus","distance":133}},{"type":"Feature","geometry":{"type":"Point","coordinates":[-0.12665793299674988,51.50085388905774]},"properties":{"name":"David Lloyd George","layer":"poi_label","class":"historic","maki":"monument","distance":144}},{"type":"Feature","geometry":{"type":"Point","coordinates":[-0.12512505054473877,51.499424617924035]},"properties":{"name":"St. Stephen’s Hall","layer":"poi_label","class":"building","maki":"marker","distance":147}},{"type":"Feature","geometry":{"type":"Point","coordinates":[-0.1265251636505127,51.50015595618342]},"properties":{"name":"Parliament Square","layer":"poi_label","class":"visitor_amenities","maki":"information","distance":147}},{"type":"Feature","geometry":{"type":"Point","coordinates":[-0.12655198574066162,51.50015679103774]},"properties":{"name":"Jubilee Walkway","layer":"poi_label","class":"visitor_amenities","maki":"information","distance":148}},{"type":"Feature","geometry":{"type":"Point","coordinates":[-0.12554079294204712,51.4994738750932]},"properties":{"name":"St. Stephen’s Porch","layer":"poi_label","class":"building","maki":"marker","distance":151}}]}