{"type":"FeatureCollection","features":[{"type":"Feature","geometry":{"type":"Point","coordinates":[2.2950254380702972,48.87378415793995]},"properties":{"name":"Roof of the Triumphal Arch","layer":"poi_label","class":"sport_and_leisure","maki":"viewpoint","distance":3}},{"type":"Feature","geometry":{"type":"Point","coordinates":[2.2950375080108643,48.87377710136971]},"properties":{"name":"Arc de Triomphe","layer":"poi_label","class":"historic","maki":"monument","distance":4}},{"type":"Feature","geometry":{"type":"Point","coordinates":[2.295108586549759,48.8737576957964]},"properties":{"name":"Flame of Remembrance","layer":"poi_label","class":"historic","maki":"monument","distance":9}},{"type":"Feature","geometry":{"type":"Point","coordinates":[2.295132726430893,48.87375063922241]},"properties":{"name":"Tomb of the Unknown Soldier","layer":"poi_label","class":"historic","maki":"marker","distance":11}},{"type":"Feature","geometry":{"type":"Point","coordinates":[2.294967770576477,48.87395439739561]},"properties":{"name":"La Paix de 1815","layer":"poi_label","class":"historic","maki":"monument","distance":17}},{"type":"Feature","geometry":{"type":"Point","coordinates":[2.2947853803634644,48.87370124317664]},"properties":{"name":"La Résistance de 1814","layer":"poi_label","class":"historic","maki":"monument","distance":19}},{"type":"Feature","geometry":{"type":"Point","coordinates":[2.2952453792095184,48.87390941189625]},"properties":{"name":"Museum of the Triumphal Arch","layer":"poi_label","class":"arts_and_entertainment","maki":"museum","distance":22}},{"type":"Feature","geometry":{"type":"Point","coordinates":[2.2952882945537567,48.873856487727636]},"properties":{"name":"Le Départ des volontaires de 1792","layer":"poi_label","class":"historic","maki":"monument","distance":22}},{"type":"Feature","geometry":{"type":"Point","coordinates":[2.2951099276542664,48.87360245093885]},"properties":{"name":"Le Triomphe de 1810","layer":"poi_label","class":"historic","maki":"monument","distance":23}},{"type":"Feature","geometry":{"type":"Point","coordinates":[2.2948752343654633,48.87426753063281]},"properties":{"name":"Charles de Gaulle-Étoile","layer":"transit_stop_label","class":"","maki":"rail","distance":53}},{"type":"Feature","geometry":{"type":"Point","coordinates":[2.294883280992508,48.87430634137641]},"properties":{"name":"Charles de Gaulle — Étoile","layer":"transit_stop_label","class":"","maki":"rail","distance":57}},{"type":"Feature","geometry":{"type":"Point","coordinates":[2.295997738838196,48.87427017682086]},"properties":{"name":"Charles de Gaulle – Étoile","layer":"transit_stop_label","class":"","maki":"bus","distance":90}},{"type":"Feature","geometry":{"type":"Point","coordinates":[2.2937527298927307,48.874035547605786]},"properties":{"name":"Charles de Gaulle – Étoile – Grande Armée","layer":"transit_stop_label","class":"","maki":"bus","distance":95}},{"type":"Feature","geometry":{"type":"Point","coordinates":[2.2954653203487396,48.87461594418468]},"properties":{"name":"Charles de Gaulle – Étoile – Wagram","layer":"transit_stop_label","class":"","maki":"bus","distance":97}},{"type":"Feature","geometry":{"type":"Point","coordinates":[2.2958582639694214,48.87308378848971]},"properties":{"name":"Charles de Gaulle – Étoile – Marceau","layer":"transit_stop_label","class":"","maki":"bus","distance":102}},{"type":"Feature","geometry":{"type":"Point","coordinates":[2.2963906824588776,48.87395880773647]},"properties":{"name":"Charles de Gaulle – Étoile – Friedland","layer":"transit_stop_label","class":"","maki":"bus","distance":104}},{"type":"Feature","geometry":{"type":"Point","coordinates":[2.2954197227954865,48.87470503181726]},"properties":{"name":"Avenue de Wagram","layer":"transit_stop_label","class":"","maki":"entrance","distance":105}},{"type":"Feature","geometry":{"type":"Point","coordinates":[2.2963719069957733,48.873496601896164]},"properties":{"name":"Champs Élysées-Étoile","layer":"transit_stop_label","class":"","maki":"bus","distance":106}},{"type":"Feature","geometry":{"type":"Point","coordinates":[2.295934706926346,48.874567431050735]},"properties":{"name":"Avenue Hoche","layer":"transit_stop_label","class":"","maki":"entrance","distance":109}},{"type":"Feature","geometry":{"type":"Point","coordinates":[2.2938264906406403,48.873174643014664]},"properties":{"name":"Charles de Gaulle – Étoile – Victor Hugo","layer":"transit_stop_label","class":"","maki":"bus","distance":111}},{"type":"Feature","geometry":{"type":"Point","coordinates":[2.2964107990264893,48.87418549873479]},"properties":{"name":"Avenue de Friedland","layer":"transit_stop_label","class":"","maki":"entrance","distance":112}},{"type":"Feature","geometry":{"type":"Point","coordinates":[2.295607477426529,48.874807350090606]},"properties":{"name":"Taxi","layer":"poi_label","class":"commercial_services","maki":"marker","distance":121}},{"type":"Feature","geometry":{"type":"Point","coordinates":[2.2956544160842896,48.87490261174321]},"properties":{"name":"Le Kiosque de Paris","layer":"poi_label","class":"store_like","maki":"marker","distance":132}},{"type":"Feature","geometry":{"type":"Point","coordinates":[2.296719253063202,48.873395163020035]},"properties":{"name":"Champs-Elysées","layer":"transit_stop_label","class":"","maki":"bus","distance":134}},{"type":"Feature","geometry":{"type":"Point","coordinates":[2.294715642929077,48.875008457811106]},"properties":{"name":"Charles de Gaulle – Étoile – Mac Mahon","layer":"transit_stop_label","class":"","maki":"bus","distance":136}},{"type":"Feature","geometry":{"type":"Point","coordinates":[2.296758145093918,48.873373111063245]},"properties":{"name":"Charles de Gaulle – Étoile – Champs-Élysées","layer":"transit_stop_label","class":"","maki":"bus","distance":137}},{"type":"Feature","geometry":{"type":"Point","coordinates":[2.293153256177902,48.8740575992706]},"properties":{"name":"Rue de Presbourg","layer":"transit_stop_label","class":"","maki":"entrance","distance":138}},{"type":"Feature","geometry":{"type":"Point","coordinates":[2.293519377708435,48.8745806619101]},"properties":{"name":"Avenue de la Grande Armée","layer":"transit_stop_label","class":"","maki":"entrance","distance":139}},{"type":"Feature","geometry":{"type":"Point","coordinates":[2.2943226993083954,48.87261628201463]},"properties":{"name":"Charles de Gaulle – Étoile – Kléber","layer":"transit_stop_label","class":"","maki":"bus","distance":141}},{"type":"Feature","geometry":{"type":"Point","coordinates":[2.293074131011963,48.873931463616685]},"properties":{"name":"L'Arc","layer":"poi_label","class":"food_and_drink","maki":"bar","distance":142}},{"type":"Feature","geometry":{"type":"Point","coordinates":[2.295370101928711,48.875067555101595]},"properties":{"name":"Hôtel de Günsburg","layer":"poi_label","class":"place_like","maki":"marker","distance":144}},{"type":"Feature","geometry":{"type":"Point","coordinates":[2.294420599937439,48.87503403724392]},"properties":{"name":"Embassy of Belgium","layer":"poi_label","class":"general","maki":"marker","distance":144}},{"type":"Feature","geometry":{"type":"Point","coordinates":[2.2969673573970795,48.873630677312406]},"properties":{"name":"Ambassade du Qatar","layer":"poi_label","class":"general","maki":"marker","distance":146}},{"type":"Feature","geometry":{"type":"Point","coordinates":[2.29408398270607,48.87496347325961]},"properties":{"name":"Étoile – Champs Élysées","layer":"transit_stop_label","class":"","maki":"bus","distance":146}}]}