{"type":"FeatureCollection","features":[{"type":"Feature","geometry":{"type":"Point","coordinates":[103.85190770030022,1.2829489174233686]},"properties":{"name":"Starbucks","layer":"poi_label","class":"food_and_drink","maki":"cafe","distance":12}},{"type":"Feature","geometry":{"type":"Point","coordinates":[103.85192781686783,1.2831848926359157]},"properties":{"name":"Ocean Towers","layer":"poi_label","class":"building","maki":"marker","distance":22}},{"type":"Feature","geometry":{"type":"Point","coordinates":[103.85220676660538,1.2832103672314332]},"properties":{"name":"Raffles Place Post Office","layer":"poi_label","class":"public_facilities","maki":"post","distance":33}},{"type":"Feature","geometry":{"type":"Point","coordinates":[103.85175481438637,1.2827223275681092]},"properties":{"name":"Raffles Place Exit J","layer":"transit_stop_label","class":"","maki":"entrance","distance":41}},{"type":"Feature","geometry":{"type":"Point","coordinates":[103.85162740945816,1.282830929808938]},"properties":{"name":"BNP Paribas","layer":"poi_label","class":"commercial_services","maki":"bank","distance":45}},{"type":"Feature","geometry":{"type":"Point","coordinates":[103.85166630148888,1.2834758393169068]},"properties":{"name":"Paul","layer":"poi_label","class":"food_and_drink_stores","maki":"bakery","distance":64}},{"type":"Feature","geometry":{"type":"Point","coordinates":[103.85231539607048,1.2825051230726245]},"properties":{"name":"Taxi","layer":"poi_label","class":"commercial_services","maki":"marker","distance":65}},{"type":"Feature","geometry":{"type":"Point","coordinates":[103.85141283273697,1.2828899236168212]},"properties":{"name":"Raffles Place Exit E","layer":"transit_stop_label","class":"","maki":"entrance","distance":66}},{"type":"Feature","geometry":{"type":"Point","coordinates":[103.85221481323242,1.283571033845874]},"properties":{"name":"DennisTan.com.sg – Veneers Singapore","layer":"poi_label","class":"medical","maki":"dentist","distance":68}},{"type":"Feature","geometry":{"type":"Point","coordinates":[103.85205790400505,1.283613938421169]},"properties":{"name":"The Arcade","layer":"poi_label","class":"building","maki":"marker","distance":68}},{"type":"Feature","geometry":{"type":"Point","coordinates":[103.8514892756939,1.283428912435113]},"properties":{"name":"The Providore","layer":"poi_label","class":"food_and_drink","maki":"restaurant","distance":74}},{"type":"Feature","geometry":{"type":"Point","coordinates":[103.85175749659538,1.2836407537803467]},"properties":{"name":"Bengawan Solo","layer":"poi_label","class":"food_and_drink_stores","maki":"bakery","distance":76}},{"type":"Feature","geometry":{"type":"Point","coordinates":[103.85162740945816,1.2836608652995665]},"properties":{"name":"City Money Changers","layer":"poi_label","class":"commercial_services","maki":"marker","distance":84}},{"type":"Feature","geometry":{"type":"Point","coordinates":[103.85145977139473,1.2835415369499543]},"properties":{"name":"Raffles Place","layer":"transit_stop_label","class":"","maki":"rail-metro","distance":85}},{"type":"Feature","geometry":{"type":"Point","coordinates":[103.85272979736328,1.2827370760208225]},"properties":{"name":"Bank of America","layer":"poi_label","class":"commercial_services","maki":"bank","distance":86}},{"type":"Feature","geometry":{"type":"Point","coordinates":[103.85166898369789,1.2837171775525036]},"properties":{"name":"Raffles Place Exit C","layer":"transit_stop_label","class":"","maki":"entrance","distance":87}},{"type":"Feature","geometry":{"type":"Point","coordinates":[103.85279014706612,1.2829596435698818]},"properties":{"name":"BRI","layer":"poi_label","class":"commercial_services","maki":"bank","distance":88}},{"type":"Feature","geometry":{"type":"Point","coordinates":[103.85141149163246,1.2824085877353752]},"properties":{"name":"Raffles Place Exit I","layer":"transit_stop_label","class":"","maki":"entrance","distance":93}},{"type":"Feature","geometry":{"type":"Point","coordinates":[103.85250851511955,1.2823321639241385]},"properties":{"name":"Singapore Labour Foundation","layer":"poi_label","class":"general","maki":"marker","distance":93}},{"type":"Feature","geometry":{"type":"Point","coordinates":[103.85213971138,1.2838378466617542]},"properties":{"name":"The Clifford","layer":"poi_label","class":"industrial","maki":"marker","distance":94}},{"type":"Feature","geometry":{"type":"Point","coordinates":[103.85166361927986,1.2837922605544776]},"properties":{"name":"Arcade Money Changers","layer":"poi_label","class":"commercial_services","maki":"marker","distance":95}},{"type":"Feature","geometry":{"type":"Point","coordinates":[103.85284915566444,1.2831151726890226]},"properties":{"name":"Merrill Lynch","layer":"poi_label","class":"commercial_services","maki":"marker","distance":95}},{"type":"Feature","geometry":{"type":"Point","coordinates":[103.85286390781403,1.282928805898564]},"properties":{"name":"OUE Bayfront","layer":"poi_label","class":"general","maki":"marker","distance":96}},{"type":"Feature","geometry":{"type":"Point","coordinates":[103.85171994566917,1.2838432097331491]},"properties":{"name":"Old Chang Kee 老曾记","layer":"poi_label","class":"food_and_drink","maki":"fast-food","distance":98}},{"type":"Feature","geometry":{"type":"Point","coordinates":[103.85115131735802,1.2833149471471756]},"properties":{"name":"Indian Bank","layer":"poi_label","class":"commercial_services","maki":"bank","distance":101}},{"type":"Feature","geometry":{"type":"Point","coordinates":[103.85259568691254,1.282275851640719]},"properties":{"name":"Workforce Singapore","layer":"poi_label","class":"general","maki":"marker","distance":104}},{"type":"Feature","geometry":{"type":"Point","coordinates":[103.85164752602577,1.2821002109392197]},"properties":{"name":"Ascott Raffles Place","layer":"poi_label","class":"building","maki":"marker","distance":107}},{"type":"Feature","geometry":{"type":"Point","coordinates":[103.85267347097397,1.282282555484045]},"properties":{"name":"NTUC Centre","layer":"poi_label","class":"building","maki":"marker","distance":109}},{"type":"Feature","geometry":{"type":"Point","coordinates":[103.8511124253273,1.2834409793476453]},"properties":{"name":"Bharat Building","layer":"poi_label","class":"building","maki":"marker","distance":110}},{"type":"Feature","geometry":{"type":"Point","coordinates":[103.85116472840309,1.28354019618196]},"properties":{"name":"Raffles Place Exit D","layer":"transit_stop_label","class":"","maki":"entrance","distance":110}},{"type":"Feature","geometry":{"type":"Point","coordinates":[103.8514731824398,1.283863321250763]},"properties":{"name":"Raffles Place Park","layer":"poi_label","class":"park_like","maki":"park","distance":112}},{"type":"Feature","geometry":{"type":"Point","coordinates":[103.8515442609787,1.282084121714064]},"properties":{"name":"Ascott","layer":"poi_label","class":"lodging","maki":"lodging","distance":113}},{"type":"Feature","geometry":{"type":"Point","coordinates":[103.85300472378731,1.2827866844521054]},"properties":{"name":"Me@OUE","layer":"poi_label","class":"food_and_drink","maki":"restaurant","distance":114}},{"type":"Feature","geometry":{"type":"Point","coordinates":[103.85127738118172,1.2822597624166576]},"properties":{"name":"One Finlayson Green","layer":"poi_label","class":"building","maki":"marker","distance":115}},{"type":"Feature","geometry":{"type":"Point","coordinates":[103.85110437870026,1.2835388554139513]},"properties":{"name":"UCC Bank","layer":"poi_label","class":"commercial_services","maki":"bank","distance":116}},{"type":"Feature","geometry":{"type":"Point","coordinates":[103.85237976908684,1.283996057263039]},"properties":{"name":"Simply Wrapps","layer":"poi_label","class":"food_and_drink","maki":"restaurant","distance":118}},{"type":"Feature","geometry":{"type":"Point","coordinates":[103.85091796517372,1.2830387488989032]},"properties":{"name":"Boston Consulting Group","layer":"poi_label","class":"general","maki":"marker","distance":120}},{"type":"Feature","geometry":{"type":"Point","coordinates":[103.8514906167984,1.283974604978681]},"properties":{"name":"Raffles Place Exit A","layer":"transit_stop_label","class":"","maki":"entrance","distance":122}},{"type":"Feature","geometry":{"type":"Point","coordinates":[103.85105073451996,1.282443447718677]},"properties":{"name":"Manichi","layer":"poi_label","class":"food_and_drink","maki":"restaurant","distance":122}},{"type":"Feature","geometry":{"type":"Point","coordinates":[103.8510413467884,1.282440766181523]},"properties":{"name":"Simply Mex","layer":"poi_label","class":"food_and_drink","maki":"restaurant","distance":123}},{"type":"Feature","geometry":{"type":"Point","coordinates":[103.85140746831894,1.283957174997525]},"properties":{"name":"Haakon","layer":"poi_label","class":"food_and_drink","maki":"cafe","distance":125}},{"type":"Feature","geometry":{"type":"Point","coordinates":[103.85252997279167,1.283996057263039]},"properties":{"name":"Wine Connection","layer":"poi_label","class":"food_and_drink","maki":"bar","distance":125}},{"type":"Feature","geometry":{"type":"Point","coordinates":[103.85097563266754,1.2825305976749064]},"properties":{"name":"Raffles Place Exit F","layer":"transit_stop_label","class":"","maki":"entrance","distance":125}},{"type":"Feature","geometry":{"type":"Point","coordinates":[103.85233148932457,1.2840858887017816]},"properties":{"name":"Banh Mi Brothers","layer":"poi_label","class":"food_and_drink","maki":"restaurant","distance":126}}]}